{"type": "FeatureCollection", "updated": "2026-09-15", "features": [{"type": "Feature", "geometry": {"type": "Point", "coordinates": [24.832173, 60.190992]}, "properties": {"id": "espoo-otakaari-12", "kunta": "Espoo", "vaihe": "Kaavoitus", "osoite": "Otakaari 12", "kaytto": null, "lupa": null, "kiinteistotunnus": "49-10-2-5", "kaavatunnus": null, "koko_proxy": null, "aikaikkuna": "Kaavavaihe, viimeisin päätös 10/2025", "status": "auto", "detalji": "Kaavoituspyynnöt sekä osallistumis- ja arviointisuunnitelma nähtävillä", "pvm": "2025-10-29", "varmuus": "kohtalainen", "tarkkuus": "talo", "url": "https://espoo.oncloudos.com/cgi/DREQUEST.PHP?page=meetingitem&id=20251517-5", "paikat": null, "valmis": "~2028–2030 (karkea arvio vaiheesta)", "nimi": "Otakaari 12", "operaattori": null, "sijoittaja": null, "toimijat_lahde": null, "kehittaja": "KOy Espoon Otakaari 12 (SPV)"}}, {"type": "Feature", "geometry": {"type": "Point", "coordinates": [24.52532, 60.281539]}, "properties": {"id": "espoo-siikjarvenpelto-espoo", "kunta": "Espoo", "vaihe": "Kaavoitus", "osoite": "Siikajärventie, Espoo", "kaytto": null, "lupa": null, "kiinteistotunnus": null, "kaavatunnus": null, "koko_proxy": null, "aikaikkuna": "Kaavavaihe, viimeisin päätös 5/2026", "status": "auto", "detalji": "Siikjärvenpelto, asemakaavan muutosehdotuksen hyväksyminen nähtäville (MRA 27 §), alue 640301, 76. kaupunginosa Siikajärvi", "pvm": "2026-05-06", "varmuus": "kohtalainen", "tarkkuus": "katu", "url": "https://espoo.oncloudos.com/cgi/DREQUEST.PHP?page=meetingitem&id=20261657-6", "paikat": null, "valmis": "~2029–2031 (karkea arvio vaiheesta)", "nimi": "Siikajärventie, Espoo", "operaattori": "Go Strong Oy (lastenkoti, toiminut 2020 keväästä)", "sijoittaja": null, "toimijat_lahde": null, "kehittaja": null}}, {"type": "Feature", "geometry": {"type": "Point", "coordinates": [24.693401, 60.225741]}, "properties": {"id": "espoo-ingaksentie-espoo", "kunta": "Espoo", "vaihe": "Kaavoitus", "osoite": "Ingaksentie, Espoo", "kaytto": null, "lupa": null, "kiinteistotunnus": null, "kaavatunnus": null, "koko_proxy": null, "aikaikkuna": "Kaavavaihe, viimeisin päätös 4/2026", "status": "auto", "detalji": "Osallistumis- ja arviointisuunnitelmat nähtävillä", "pvm": "2026-04-08", "varmuus": "kohtalainen", "tarkkuus": "katu", "url": "https://espoo.oncloudos.com/cgi/DREQUEST.PHP?page=meetingitem&id=20261639-3", "paikat": null, "valmis": "~2029–2031 (karkea arvio vaiheesta)", "nimi": "Ingaksentie, Espoo", "operaattori": null, "sijoittaja": null, "toimijat_lahde": null, "kehittaja": null}}, {"type": "Feature", "geometry": {"type": "Point", "coordinates": [24.708847, 60.154805]}, "properties": {"id": "espoo-suomenlahdentie-espoo", "kunta": "Espoo", "vaihe": "Kaavoitus", "osoite": "Suomenlahdentie, Espoo", "kaytto": null, "lupa": null, "kiinteistotunnus": null, "kaavatunnus": null, "koko_proxy": null, "aikaikkuna": "Kaavavaihe, viimeisin päätös 5/2025", "status": "auto", "detalji": "Tiistinlaakso, asemakaavan muutosehdotuksen hyväksyminen nähtäville (MRA 27 §), alue 311802, 23. kaupunginosa Matinkylä, pöydälle 23.4.2025", "pvm": "2025-05-07", "varmuus": "kohtalainen", "tarkkuus": "katu", "url": "https://espoo.oncloudos.com/cgi/DREQUEST.PHP?page=meetingitem&id=20251428-3", "paikat": null, "valmis": "~2028–2030 (karkea arvio vaiheesta)", "nimi": "Suomenlahdentie, Espoo — Espoon kaupunki", "operaattori": null, "sijoittaja": null, "toimijat_lahde": null, "kehittaja": "Espoon kaupunki (elä ja asu -keskus -varaus; YP-1 5 600 k-m²)"}}, {"type": "Feature", "geometry": {"type": "Point", "coordinates": [24.78864, 60.175679]}, "properties": {"id": "espoo-jousenkaari-tapiola-espoo", "kunta": "Espoo", "vaihe": "Kaavoitus", "osoite": null, "kaytto": "Ikääntyvien hoivakoti-/senioritaloasuminen (täydennysrakentaminen)", "lupa": null, "kiinteistotunnus": null, "kaavatunnus": "210805", "koko_proxy": null, "aikaikkuna": "Kaavavaihe, viimeisin päätös 4/2026", "status": "vahvistettu", "detalji": "Espoon vireillä-WFS (kaava 210805). Selostus: 'Tapiolassa ei ole ikääntyville riittävästi hoivakotipaikkoja tai vuokrattavia senioritaloja' → täydennysrakentamisella lisätään hoiva-/senioriasumista. Verifioitu selostustekstistä (ei arkkitehdin CV-referenssi).", "pvm": "2026-04-28", "varmuus": "korkea", "tarkkuus": "katu", "url": "https://www.espoo.fi/fi/hankkeet/jousenkaaren-taydennysrakentaminen", "paikat": null, "valmis": "~2029–2031 (karkea arvio vaiheesta)", "nimi": "Jousenkaari", "operaattori": null, "sijoittaja": null, "toimijat_lahde": null, "kehittaja": null}}, {"type": "Feature", "geometry": {"type": "Point", "coordinates": [24.514998, 60.276604]}, "properties": {"id": "espoo-siikajarventie-99", "kunta": "Espoo", "vaihe": "Kaavoitus", "osoite": "Siikajärventie 99", "kaytto": null, "lupa": null, "kiinteistotunnus": null, "kaavatunnus": "640301", "koko_proxy": null, "aikaikkuna": "Kaavavaihe, viimeisin päätös 6/2026", "status": "auto", "detalji": "Lastenkoti Siikajärvelle", "pvm": "2026-06-23", "varmuus": "kohtalainen", "tarkkuus": "talo", "url": "https://www.espoo.fi/fi/hankkeet/lastenkoti-siikajarvelle", "paikat": "21", "valmis": "~2029–2031 (karkea arvio vaiheesta)", "nimi": "Siikajärventie 99", "operaattori": "Go Strong Oy", "sijoittaja": null, "toimijat_lahde": null, "kehittaja": null}}, {"type": "Feature", "geometry": {"type": "Point", "coordinates": [25.063339, 60.233156]}, "properties": {"id": "helsinki-panosaukio-1", "kunta": "Helsinki", "vaihe": "Kaavoitus", "osoite": "Panosaukio 1", "kaytto": "Ikääntyneiden hoivakoti (+ asuntotarjonnan monipuolistaminen)", "lupa": null, "kiinteistotunnus": null, "kaavatunnus": null, "koko_proxy": null, "aikaikkuna": "Kaavavaihe, viimeisin päätös 6/2026", "status": "vahvistettu", "detalji": "Helsingin suunnittelu- ja kaavoituskatsaus 2026, hanke 160, Panosaukio 1 ja Sankkikuja 3 (Kivikko, 47 Mellunkylä). Tavoite: ikääntyneiden hoivakodin rakentaminen; hoivakodin tonttia laajennetaan viereiselle puistoalueelle (puhelinkeskus puretaan), ent. seurakuntakeskus suojellaan. Vaihe 'asemakaavoitus alkaa' — ei vielä kaavatunnusta eikä päätöstä missään koneluettavassa rajapinnassa (näkyy vain katsaus-PDF:ssä). Operaattoria ei nimetty.", "pvm": "2026-06-17", "varmuus": "korkea", "tarkkuus": "talo", "url": "https://www.hel.fi/static/liitteet/kaupunkiymparisto/julkaisut/julkaisut/suunnittelu-ja-kaavoituskatsaus.pdf", "paikat": null, "valmis": "~2029–2031 (karkea arvio vaiheesta)", "nimi": "Panosaukio 1", "operaattori": null, "sijoittaja": null, "toimijat_lahde": null, "kehittaja": "(ei nimettyä operaattoria — kaupungin tontti, ent. seurakuntakeskus → mahd. lead)"}}, {"type": "Feature", "geometry": {"type": "Point", "coordinates": [25.059634, 60.264572]}, "properties": {"id": "helsinki-puistolantie-1", "kunta": "Helsinki", "vaihe": "Kaavoitus", "osoite": "Puistolantie 1", "kaytto": "Tuettu erityisasuminen + tehostettu palveluasuminen (palvelutalokokonaisuus, 2 taloa 3–4 krs)", "lupa": null, "kiinteistotunnus": null, "kaavatunnus": null, "koko_proxy": null, "aikaikkuna": "Kaavavaihe, viimeisin päätös 6/2026", "status": "vahvistettu", "detalji": "Katsaus #120 (Puistola): 'Pelastusarmeijan tilojen tilalle rakennetaan uusi suurempi palvelutalokokonaisuus, jossa on tuettua erityisasumista ja tehostettua palveluasumista.' Nykyinen vanhustentalo puretaan; Puistolantie 1:een lisäksi 6 asuintaloa. Seuraava vaihe: asemakaavan hyväksyminen (pitkällä).", "pvm": "2026-06-17", "varmuus": "korkea", "tarkkuus": "talo", "url": "https://www.hel.fi/static/liitteet/kaupunkiymparisto/julkaisut/julkaisut/suunnittelu-ja-kaavoituskatsaus.pdf", "paikat": null, "valmis": "~2029–2031 (karkea arvio vaiheesta)", "nimi": "Puistolantie 1 — Suomen Pelastusarmeijan Säätiö", "operaattori": null, "sijoittaja": "Suomen Pelastusarmeijan Säätiö sr", "toimijat_lahde": null, "kehittaja": "Suomen Pelastusarmeijan Säätiö sr (tontinomistaja + toteuttaja)"}}, {"type": "Feature", "geometry": {"type": "Point", "coordinates": [24.994482, 60.258728]}, "properties": {"id": "helsinki-kirkonkylantie-47", "kunta": "Helsinki", "vaihe": "Kaavoitus", "osoite": "Kirkonkyläntie 47", "kaytto": "Palveluasumista (osaan asuinkerrostaloista)", "lupa": null, "kiinteistotunnus": null, "kaavatunnus": null, "koko_proxy": null, "aikaikkuna": "Kaavavaihe, viimeisin päätös 6/2026", "status": "vahvistettu", "detalji": "Katsaus #122 (Tapaninkylä): Kirkonkyläntien, Muuttolinnuntien ja Vanhan Tapanilantien varteen asuinkerrostaloja, 'osaan rakennuksista on tarkoitus tulla palveluasumista'. Seuraava vaihe: asemakaavaehdotus.", "pvm": "2026-06-17", "varmuus": "korkea", "tarkkuus": "talo", "url": "https://www.hel.fi/static/liitteet/kaupunkiymparisto/julkaisut/julkaisut/suunnittelu-ja-kaavoituskatsaus.pdf", "paikat": null, "valmis": "~2029–2031 (karkea arvio vaiheesta)", "nimi": "Kirkonkyläntie 47 — Hemsö Suomi", "operaattori": null, "sijoittaja": "Hemsö Suomi Oy", "toimijat_lahde": null, "kehittaja": "Hemsö Suomi Oy (Tapaninkylän Liikekeskus Oy; kaavahakija)"}}, {"type": "Feature", "geometry": {"type": "Point", "coordinates": [24.859698, 60.251961]}, "properties": {"id": "helsinki-kehruutie-6", "kunta": "Helsinki", "vaihe": "Kaavoitus", "osoite": "Kehruutie 6", "kaytto": "Ikäihmisten palveluasuminen", "lupa": null, "kiinteistotunnus": null, "kaavatunnus": null, "koko_proxy": null, "aikaikkuna": "Kaavavaihe, viimeisin päätös 6/2026", "status": "vahvistettu", "detalji": "Katsaus #41 (Konala): 'Osoitteeseen Kehruutie 6 suunnitellaan ikäihmisten palveluasumista. Suunnittelualue sijaitsee Malminkartanon juna-aseman pohjoispuolella.' Seuraava vaihe: tarkistettu asemakaavaehdotus.", "pvm": "2026-06-17", "varmuus": "korkea", "tarkkuus": "katu", "url": "https://www.hel.fi/static/liitteet/kaupunkiymparisto/julkaisut/julkaisut/suunnittelu-ja-kaavoituskatsaus.pdf", "paikat": "60", "valmis": "~2029–2031 (karkea arvio vaiheesta)", "nimi": "Kehruutie 6", "operaattori": null, "sijoittaja": null, "toimijat_lahde": null, "kehittaja": null}}, {"type": "Feature", "geometry": {"type": "Point", "coordinates": [24.892868, 60.159121]}, "properties": {"id": "helsinki-pohjoiskaari-1", "kunta": "Helsinki", "vaihe": "Kaavoitus", "osoite": "Pohjoiskaari 1", "kaytto": "Palvelutalo (nykyinen puretaan, tilalle suurempi palveluasumisen yksikkö)", "lupa": null, "kiinteistotunnus": null, "kaavatunnus": null, "koko_proxy": null, "aikaikkuna": "Kaavavaihe, viimeisin päätös 6/2026", "status": "vahvistettu", "detalji": "Katsaus #10 (Lauttasaari): 'Kaupungin vuokratontilla sijaitseva nykyinen palvelutalo on tarkoitus purkaa. Sen tilalle suunnitellaan suurempaa palvelutaloa, joka vastaa alueen nykyistä palveluasumisen tarvetta.' Seuraava vaihe: asemakaavoitus alkaa.", "pvm": "2026-06-17", "varmuus": "korkea", "tarkkuus": "talo", "url": "https://www.hel.fi/static/liitteet/kaupunkiymparisto/julkaisut/julkaisut/suunnittelu-ja-kaavoituskatsaus.pdf", "paikat": null, "valmis": "~2029–2031 (karkea arvio vaiheesta)", "nimi": "Pohjoiskaari 1 — Lauttasaaren vanhustentalosäätiö", "operaattori": "Lauttasaaren vanhustentalosäätiö sr (oma palvelutuotanto)", "sijoittaja": null, "toimijat_lahde": null, "kehittaja": "Lauttasaaren vanhustentalosäätiö sr"}}, {"type": "Feature", "geometry": {"type": "Point", "coordinates": [25.07383, 60.260874]}, "properties": {"id": "helsinki-vuorensyrja-jakomaki-helsinki", "kunta": "Helsinki", "vaihe": "Kaavoitus", "osoite": null, "kaytto": "Uusi palvelutalo (+ 8 asuinkerrostaloa)", "lupa": null, "kiinteistotunnus": null, "kaavatunnus": null, "koko_proxy": null, "aikaikkuna": "Kaavavaihe, viimeisin päätös 6/2026", "status": "vahvistettu", "detalji": "Katsaus #121 (Jakomäki): 'Vuorensyrjän palvelutalon tontille on suunniteltu neljä taloa. Uusi palvelutalo on tarkoitus rakentaa viereiselle tontille.' Kokonaisuus 8 uutta asuinkerrostaloa + uusi palvelutalo. Seuraava vaihe: asemakaavan hyväksyminen.", "pvm": "2026-06-17", "varmuus": "korkea", "tarkkuus": "katu", "url": "https://www.hel.fi/static/liitteet/kaupunkiymparisto/julkaisut/julkaisut/suunnittelu-ja-kaavoituskatsaus.pdf", "paikat": "104", "valmis": "2026 alkupuoli", "nimi": "Vuorensyrjä — Helsingin ATT", "operaattori": "Helsingin kaupunki (sote)", "sijoittaja": "Heka (Heka Jakomäki)", "toimijat_lahde": null, "kehittaja": "Helsingin ATT (pääurakoitsija Skanska)"}}, {"type": "Feature", "geometry": {"type": "Point", "coordinates": [25.120075, 60.19584]}, "properties": {"id": "helsinki-vuoranta-vuosaari-helsinki", "kunta": "Helsinki", "vaihe": "Kaavoitus", "osoite": null, "kaytto": "Vanhusten palveluasunnot (kunnostettu koulutuskeskus) + uusi palvelurakennus", "lupa": null, "kiinteistotunnus": null, "kaavatunnus": null, "koko_proxy": null, "aikaikkuna": "Kaavavaihe, viimeisin päätös 6/2026", "status": "vahvistettu", "detalji": "Katsaus #165 (Vuosaari): 'Koulutuskeskuksen päärakennus on kunnostettu vanhusten palveluasunnoiksi. Huonokuntoinen rantasauna korvataan vastaavan kokoisella palvelurakennuksella.' Alueelle myös ~150 asukkaan uusi asuinrakentaminen. Seuraava vaihe: asemakaavoitus alkaa.", "pvm": "2026-06-17", "varmuus": "kohtalainen", "tarkkuus": "talo", "url": "https://www.hel.fi/static/liitteet/kaupunkiymparisto/julkaisut/julkaisut/suunnittelu-ja-kaavoituskatsaus.pdf", "paikat": "43", "valmis": "saneerattu osa avattu 2023; kaava sallii uudisrakennuksen", "nimi": "Vuoranta — Guud Invest", "operaattori": "Hoitokoti Päiväkumpu", "sijoittaja": "Evli Healthcare I -rahasto", "toimijat_lahde": null, "kehittaja": "Guud Invest"}}, {"type": "Feature", "geometry": {"type": "Point", "coordinates": [25.155208, 60.212335]}, "properties": {"id": "helsinki-vuosaaren-liikuntapuisto-helsinki", "kunta": "Helsinki", "vaihe": "Kaavoitus", "osoite": null, "kaytto": "Lastenkoti (lastensuojelu) + virkistysalueet", "lupa": null, "kiinteistotunnus": null, "kaavatunnus": null, "koko_proxy": null, "aikaikkuna": "Kaavavaihe, viimeisin päätös 6/2026", "status": "vahvistettu", "detalji": "Katsaus #172 (Vuosaari): 'Liikuntapuiston lähelle aiemmin kaavoitetusta hautausmaasta luovutaan. Sen sijaan alueelle suunnitellaan lastenkotia ja virkistysalueita.' (myös uusi palloiluhalli). Seuraava vaihe: asemakaavaehdotus.", "pvm": "2026-06-17", "varmuus": "kohtalainen", "tarkkuus": "katu", "url": "https://www.hel.fi/static/liitteet/kaupunkiymparisto/julkaisut/julkaisut/suunnittelu-ja-kaavoituskatsaus.pdf", "paikat": null, "valmis": "~2029–2031 (karkea arvio vaiheesta)", "nimi": "Vuosaaren liikuntapuisto", "operaattori": null, "sijoittaja": null, "toimijat_lahde": null, "kehittaja": null}}, {"type": "Feature", "geometry": {"type": "Point", "coordinates": [25.082442, 60.236151]}, "properties": {"id": "helsinki-aapelinkatu-kontula-helsinki", "kunta": "Helsinki", "vaihe": "Kaavoitus", "osoite": null, "kaytto": null, "lupa": null, "kiinteistotunnus": null, "kaavatunnus": null, "koko_proxy": null, "aikaikkuna": "Kaavavaihe, viimeisin päätös 5/2026", "status": "auto", "detalji": "Kulttuurin ja vapaa-ajan toimialan lausunto koskien Kontulan Aapelinkulman hankesuunnitelmaa", "pvm": "2026-05-26", "varmuus": "kohtalainen", "tarkkuus": "kaupunginosa", "url": "https://paatokset.hel.fi/fi/asia/hel-2026-004500?paatos=3d55318e-f0a6-4a9e-82af-824129b983ef", "paikat": null, "valmis": "~2029–2031 (karkea arvio vaiheesta)", "nimi": "Kontula", "operaattori": null, "sijoittaja": null, "toimijat_lahde": null, "kehittaja": null}}, {"type": "Feature", "geometry": {"type": "Point", "coordinates": [25.058314, 60.267585]}, "properties": {"id": "helsinki-puistolantie-6", "kunta": "Helsinki", "vaihe": "Kaavoitus", "osoite": "Puistolantie 6", "kaytto": null, "lupa": null, "kiinteistotunnus": "91-41-113-2; 91-41-113-4", "kaavatunnus": null, "koko_proxy": null, "aikaikkuna": "Kaavavaihe, viimeisin päätös 8/2026", "status": "auto", "detalji": "Maankäyttösopimuksen tekeminen Suomen Pelastusarmeijan Säätiö sr:n kanssa liittyen asemakaavan muutokseen nro 12958 (Puistola, Puistolantie 6)", "pvm": "2026-08-05", "varmuus": "kohtalainen", "tarkkuus": "talo", "url": "https://paatokset.hel.fi/fi/asia/hel-2026-012586?paatos=dc5523db-81c9-cd6c-853d-9fd0c0f00000", "paikat": null, "valmis": "~2029–2031 (karkea arvio vaiheesta)", "nimi": "Puistolantie 6", "operaattori": null, "sijoittaja": null, "toimijat_lahde": null, "kehittaja": null}}, {"type": "Feature", "geometry": {"type": "Point", "coordinates": [22.207771, 60.488839]}, "properties": {"id": "raisio-kuloistentie", "kunta": "Raisio", "vaihe": "Kaavoitus", "osoite": "Kuloistentie", "kaytto": "Palveluasuminen / palvelurakentaminen", "lupa": null, "kiinteistotunnus": null, "kaavatunnus": null, "koko_proxy": null, "aikaikkuna": "Kaavavaihe, viimeisin päätös 4/2025", "status": "vahvistettu", "detalji": "Kuloistenmetsän kaava valmisteilla, käyttötarkoitus palveluasumiseen; hinnoittelu + luovutus 2024-2025", "pvm": "2025-04-29", "varmuus": "kohtalainen", "tarkkuus": "katu", "url": "https://julkaisut.raisio.fi/dynasty10/cgi/DREQUEST.PHP?page=meetingitem&id=2025534-5", "paikat": null, "valmis": "~2028–2030 (karkea arvio vaiheesta)", "nimi": "Kuloistentie", "operaattori": null, "sijoittaja": null, "toimijat_lahde": null, "kehittaja": "(kunta luovuttaa)"}}, {"type": "Feature", "geometry": {"type": "Point", "coordinates": [22.186539, 60.481247]}, "properties": {"id": "raisio-haunistentie-1", "kunta": "Raisio", "vaihe": "Kaavoitus", "osoite": "Haunistentie 1", "kaytto": "Palvelutaloasuminen (+ asuminen; vanhat rakennukset säilytetään)", "lupa": null, "kiinteistotunnus": null, "kaavatunnus": null, "koko_proxy": null, "aikaikkuna": "Kaavavaihe, viimeisin päätös 5/2026", "status": "vahvistettu", "detalji": "Raision kaavoituskatsaus 2026 kohta 15 UUSILUKKARLA (kaava 06_041): 'Muutoksen tarkoituksena on säilyttää Haunistentien varrella olevat vanhat rakennukset ja mahdollistaa alueelle lisäksi asumista ja palvelutaloasumista.' Luonnos nähtävillä 5.12.2025–12.1.2026. Ristivarmistus: raisio.fi/fi/uusilukkarla.", "pvm": "2026-05-20", "varmuus": "korkea", "tarkkuus": "talo", "url": "https://raisio.fi/fi/uusilukkarla", "paikat": null, "valmis": "~2029–2031 (karkea arvio vaiheesta)", "nimi": "Haunistentie 1 — Jatke Länsi-Suomi", "operaattori": null, "sijoittaja": null, "toimijat_lahde": null, "kehittaja": "Jatke Länsi-Suomi Oy (kaavahakija)"}}, {"type": "Feature", "geometry": {"type": "Point", "coordinates": [23.782985, 61.5]}, "properties": {"id": "tampere-makipaankatu-39", "kunta": "Tampere", "vaihe": "Kaavoitus", "osoite": "Mäkipäänkatu 39", "kaytto": null, "lupa": null, "kiinteistotunnus": null, "kaavatunnus": null, "koko_proxy": null, "aikaikkuna": "Kaavavaihe, viimeisin päätös 5/2026", "status": "auto", "detalji": "Asemakaavaehdotuksen asettaminen nähtäville: XVI (Tammela), Mäkipäänkatu 39–41, täydennysrakentaminen, asemakaava nro 8901", "pvm": "2026-05-12", "varmuus": "kohtalainen", "tarkkuus": "talo", "url": "https://tampere.cloudnc.fi/fi-FI/content/507852/36721", "paikat": null, "valmis": "~2029–2031 (karkea arvio vaiheesta)", "nimi": "Mäkipäänkatu 39 — Jatke", "operaattori": null, "sijoittaja": null, "toimijat_lahde": null, "kehittaja": "Jatke Oy (Jatke Pirkanmaa)"}}, {"type": "Feature", "geometry": {"type": "Point", "coordinates": [23.636099, 61.498185]}, "properties": {"id": "tampere-voionmaankatu-44", "kunta": "Tampere", "vaihe": "Kaavoitus", "osoite": "Voionmaankatu 44", "kaytto": null, "lupa": null, "kiinteistotunnus": null, "kaavatunnus": null, "koko_proxy": null, "aikaikkuna": "Kaavavaihe, viimeisin päätös 8/2024", "status": "auto", "detalji": "Asemakaava nro 8930, Rahola, Voionmaankatu 44, asuinkerrostalotontin maankäytön tehostaminen", "pvm": "2024-08-27", "varmuus": "kohtalainen", "tarkkuus": "talo", "url": "https://tampere.cloudnc.fi/fi-FI/content/399939/31669", "paikat": "176 asuntoa", "valmis": "syys–lokakuu 2026", "nimi": "Voionmaankatu 44 — Tampereen Kotilinnasäätiö", "operaattori": null, "sijoittaja": "Tampereen Kotilinnasäätiö sr", "toimijat_lahde": null, "kehittaja": "Tampereen Kotilinnasäätiö sr (KVR Pohjola Rakennus)"}}, {"type": "Feature", "geometry": {"type": "Point", "coordinates": [23.7632, 61.454777]}, "properties": {"id": "tampere-automiehenkatu-2", "kunta": "Tampere", "vaihe": "Kaavoitus", "osoite": "Automiehenkatu 2", "kaytto": null, "lupa": null, "kiinteistotunnus": null, "kaavatunnus": null, "koko_proxy": null, "aikaikkuna": "Kaavavaihe, viimeisin päätös 1/2025", "status": "auto", "detalji": "Asemakaava nro 8628, Peltolammi, Lakalaiva, hyvinvointikeskus, liiketilaa ja asumista", "pvm": "2025-01-13", "varmuus": "kohtalainen", "tarkkuus": "katu", "url": "https://tampere.cloudnc.fi/fi-FI/content/418941/32758", "paikat": null, "valmis": "~2028–2030 (karkea arvio vaiheesta)", "nimi": "Automiehenkatu 2", "operaattori": null, "sijoittaja": null, "toimijat_lahde": null, "kehittaja": null}}, {"type": "Feature", "geometry": {"type": "Point", "coordinates": [23.825818, 61.50637]}, "properties": {"id": "tampere-laakarinkatu-tampere", "kunta": "Tampere", "vaihe": "Kaavoitus", "osoite": "Lääkärinkatu, Tampere", "kaytto": null, "lupa": null, "kiinteistotunnus": null, "kaavatunnus": null, "koko_proxy": null, "aikaikkuna": "Kaavavaihe, viimeisin päätös 9/2024", "status": "auto", "detalji": "Asemakaava nro 8618, Kauppi, Kaupinlaakso, Lääkärinkatu - Toimelankatu", "pvm": "2024-09-10", "varmuus": "kohtalainen", "tarkkuus": "katu", "url": "https://tampere.cloudnc.fi/fi-FI/content/401814/31773", "paikat": null, "valmis": "~2027–2029 (karkea arvio vaiheesta)", "nimi": "Lääkärinkatu, Tampere", "operaattori": null, "sijoittaja": null, "toimijat_lahde": null, "kehittaja": null}}, {"type": "Feature", "geometry": {"type": "Point", "coordinates": [23.820174, 61.499178]}, "properties": {"id": "tampere-kissanmaankatu-19", "kunta": "Tampere", "vaihe": "Kaavoitus", "osoite": "Kissanmaankatu 19", "kaytto": "Palveluasuminen (viitesuunnitelma 'Kissanmaankatu Hoiva', 3636 k-m², 3 krs)", "lupa": null, "kiinteistotunnus": null, "kaavatunnus": "9096", "koko_proxy": null, "aikaikkuna": "Kaavavaihe, viimeisin päätös 4/2026", "status": "vahvistettu", "detalji": "Asemakaavan muutos nro 9096 (diaari TRE:5829/10.02.01/2025). OAS nähtävillä 30.4.–21.5.2026; kaavamuutoshakemus jätetty 3.11.2025. Tavoite palveluasumisrakentaminen; nyk. YKS-kortteli, Baptistikirkon rakennukset puretaan. Viitesuunnitelma (BST-Arkkitehdit Oy) 'Kissanmaankatu Hoiva' 3636 k-m². Kehittäjä ei näy julkisissa asiakirjoissa (hakija merkitty geneerisesti, maanomistaja baptistiseurakunta).", "pvm": "2026-04-30", "varmuus": "korkea", "tarkkuus": "talo", "url": "https://www.tampere.fi/kaavat/9096", "paikat": "~91 (arvio 40 k-m²/paikka)", "valmis": "2028–29 (arvio)", "nimi": "Kissanmaankatu 19", "operaattori": null, "sijoittaja": null, "toimijat_lahde": null, "kehittaja": null}}, {"type": "Feature", "geometry": {"type": "Point", "coordinates": [23.738601, 61.471982]}, "properties": {"id": "tampere", "kunta": "Tampere", "vaihe": "Kaavoitus", "osoite": null, "kaytto": null, "lupa": null, "kiinteistotunnus": null, "kaavatunnus": "8809", "koko_proxy": null, "aikaikkuna": "Kaavavaihe, viimeisin päätös 8/2026", "status": "auto", "detalji": "Härmälä, Härmälän leirintäalueen ja lähiympäristön kehittäminen, asemakaava 8809", "pvm": "2026-08-27", "varmuus": "kohtalainen", "tarkkuus": "katu", "url": "https://www.tampere.fi/kaavat/8809", "paikat": null, "valmis": "~2029–2031 (karkea arvio vaiheesta)", "nimi": "Leirintäkatu 8", "operaattori": null, "sijoittaja": null, "toimijat_lahde": null, "kehittaja": null}}, {"type": "Feature", "geometry": {"type": "Point", "coordinates": [22.249235, 60.472906]}, "properties": {"id": "turku-hepokulta", "kunta": "Turku", "vaihe": "Kaavoitus", "osoite": "Hepokulta", "kaytto": "Täydennysrakentaminen; aloitteessa mahdollista palveluasumista", "lupa": "Kaava 1/2025 aloitusvaiheessa (Kylk 4.3.2025 § 73); ehdotus tavoite 12/2026, hyväksyminen 5/2027", "kiinteistotunnus": null, "kaavatunnus": "1/2025", "koko_proxy": null, "aikaikkuna": null, "status": "vahvistettu", "detalji": "Asemakaavanmuutoksen tavoitteet hyväksytty ja OAS tiedoksi (Kylk 4.3.2025 § 73)", "pvm": "2025-03-04", "varmuus": "matala", "tarkkuus": "kaupunginosa", "url": "https://paatokset.turku.fi/kaupunkiymparistolautakunta/5177653/5176400", "paikat": "Ei määritelty", "valmis": "~2028–2030 (karkea arvio vaiheesta)", "nimi": "Hepokulta", "operaattori": null, "sijoittaja": null, "toimijat_lahde": null, "kehittaja": "(kaava-aloite: Hepokullan Lämpö Oy ja taloyhtiöt, seurakuntayhtymä, KOy Jahtihansa)"}}, {"type": "Feature", "geometry": {"type": "Point", "coordinates": [22.281699, 60.44101]}, "properties": {"id": "turku-mooriankunnas", "kunta": "Turku", "vaihe": "Kaavoitus", "osoite": null, "kaytto": "Ikäihmiset: välimuotoinen yhteisöllinen palveluasuminen (AL-1-kortteli)", "lupa": "Kaavaehdotus 15/2021 nähtävillä 30.9.–29.10.2024; hyväksyminen suunnitteilla 4/2027 (Kv)", "kiinteistotunnus": null, "kaavatunnus": "15/2021", "koko_proxy": null, "aikaikkuna": null, "status": "vahvistettu", "detalji": "Kylk 8.10.2024 § 365 (tiedoksi kuulutus): Mooriankunnaksen kaavaehdotus 15/2021 nähtävillä 30.9.–29.10.2024", "pvm": "2024-10-08", "varmuus": "matala", "tarkkuus": "katu", "url": "https://paatokset.turku.fi/kaupunkiymparistolautakunta/5111596/5109561", "paikat": null, "valmis": "~2027–2029 (karkea arvio vaiheesta)", "nimi": "Mooriankunnas (Kurjenmäki)", "operaattori": null, "sijoittaja": null, "toimijat_lahde": null, "kehittaja": "(toteuttaja auki; välimuotoisen asumisen järjestävät kaupunki ja Varha – kaavaselostus 23.9.2024)"}}, {"type": "Feature", "geometry": {"type": "Point", "coordinates": [22.321929, 60.447656]}, "properties": {"id": "turku-itaharjun-voimakatu", "kunta": "Turku", "vaihe": "Kaavoitus", "osoite": null, "kaytto": "Palveluasuminen sallittu vaihtoehtona AL-2-korttelissa (ei hanketta)", "lupa": "Kaavaehdotus 2/2020 uudelleen nähtävillä 2.6.–1.7.2025; hyväksyminen suunnitteilla 12/2026 (Kv)", "kiinteistotunnus": null, "kaavatunnus": "2/2020", "koko_proxy": null, "aikaikkuna": null, "status": "vahvistettu", "detalji": "Kylk 18.6.2025 § 233 (tiedoksi kuulutus): Itäharjun Voimakadun kaavaehdotus 2/2020 nähtävillä 2.6.–1.7.2025", "pvm": "2025-06-18", "varmuus": "matala", "tarkkuus": "katu", "url": "https://paatokset.turku.fi/kaupunkiymparistolautakunta/5239608/5232643", "paikat": null, "valmis": "~2028–2030 (karkea arvio vaiheesta)", "nimi": "Itäharjun Voimakatu (Kalevantien kulma)", "operaattori": null, "sijoittaja": null, "toimijat_lahde": null, "kehittaja": null}}, {"type": "Feature", "geometry": {"type": "Point", "coordinates": [24.866035, 60.277363]}, "properties": {"id": "vantaa-martinlaaksontie-26", "kunta": "Vantaa", "vaihe": "Kaavoitus", "osoite": "Martinlaaksontie 26", "kaytto": null, "lupa": null, "kiinteistotunnus": null, "kaavatunnus": null, "koko_proxy": null, "aikaikkuna": "Kaavavaihe, viimeisin päätös 6/2026", "status": "auto", "detalji": "Asemakaavamuutos 002414 sekä tonttijako, 17 Martinlaakso / Martinlaaksontie 26 - Ehdotus nähtäville / SP", "pvm": "2026-06-09", "varmuus": "kohtalainen", "tarkkuus": "katu", "url": "https://paatokset.vantaa.fi/ktwebscr/fileshow?doctype=3&docid=3404422", "paikat": null, "valmis": "~2029–2031 (karkea arvio vaiheesta)", "nimi": "Martinlaaksontie 26", "operaattori": null, "sijoittaja": null, "toimijat_lahde": null, "kehittaja": null}}, {"type": "Feature", "geometry": {"type": "Point", "coordinates": [25.076171, 60.35176]}, "properties": {"id": "vantaa", "kunta": "Vantaa", "vaihe": "Kaavoitus", "osoite": null, "kaytto": null, "lupa": null, "kiinteistotunnus": null, "kaavatunnus": "002637", "koko_proxy": null, "aikaikkuna": "Kaavavaihe, viimeisin päätös 6/2026", "status": "auto", "detalji": "Korson keskustaan liikekeskus", "pvm": "2026-06-09", "varmuus": "kohtalainen", "tarkkuus": "talo", "url": "https://www.vantaa.fi/fi/kaavoitus/kaavat/korson-keskustaan-liikekeskus", "paikat": null, "valmis": "~2029–2031 (karkea arvio vaiheesta)", "nimi": "Urpiaisentie 14 — Realidea", "operaattori": null, "sijoittaja": null, "toimijat_lahde": null, "kehittaja": "Realidea (+Kesko/Tokmanni, suunnitteluvaraus)"}}, {"type": "Feature", "geometry": {"type": "Point", "coordinates": [22.126739, 60.507911]}, "properties": {"id": "raisio-kotimaentie-10", "kunta": "Raisio", "vaihe": "Tontti", "osoite": "Kotimäentie 10", "kaytto": "12-paikkainen lastensuojeluyksikkö (hirsirunkoinen, 6+6)", "lupa": null, "kiinteistotunnus": null, "kaavatunnus": null, "koko_proxy": null, "aikaikkuna": "Tonttivaihe, viimeisin päätös 6/2026", "status": "vahvistettu", "detalji": "Tontinvaraus 1/2026, poikkeamishakemus 3/2026 (nyk. kaava AP-27), varaus jatkettu 31.12.2026 asti", "pvm": "2026-06-15", "varmuus": "korkea", "tarkkuus": "katu", "url": "https://julkaisut.raisio.fi/dynasty10/cgi/DREQUEST.PHP?page=meetingitem&id=2026725-9", "paikat": "12", "valmis": "~2028–2029 (karkea arvio vaiheesta)", "nimi": "Kotimäentie 10 — Hoivarakentajat", "operaattori": null, "sijoittaja": null, "toimijat_lahde": null, "kehittaja": "Hoivarakentajat Oy"}}, {"type": "Feature", "geometry": {"type": "Point", "coordinates": [22.337799, 60.546652]}, "properties": {"id": "turku-koskennurmenkatu-5", "kunta": "Turku", "vaihe": "Tontti", "osoite": "Koskennurmenkatu 5", "kaytto": "Palveluasuminen (tonttipäällikkö § 178, Koskennurmi); asiakasryhmä ei julkaistu", "lupa": "Ei rakentamislupaa; tonttikilpailu voitettu, vuokra osto-optiolla 220 000 € (Kylk 16.6.2026 § 212)", "kiinteistotunnus": "853-99-4-2", "kaavatunnus": null, "koko_proxy": null, "aikaikkuna": null, "status": "vahvistettu", "detalji": "Tonttipäällikkö §178: tontin vuokraaminen palveluasumiseen (Koskennurmi)", "pvm": "2026-09-08", "varmuus": "matala", "tarkkuus": "talo", "url": "https://paatokset.turku.fi/kaupunkiymparistolautakunta/5454760/5449725", "paikat": "Ei julkaistu (1 300 k-m², tontti 6 169 m²)", "valmis": "~2028–2029 (karkea arvio vaiheesta)", "nimi": "Koskennurmenkatu 5 — Vestera", "operaattori": null, "sijoittaja": null, "toimijat_lahde": null, "kehittaja": "Vestera Oy"}}, {"type": "Feature", "geometry": {"type": "Point", "coordinates": [22.325216, 60.543646]}, "properties": {"id": "turku-pyhan-marian-tie-42", "kunta": "Turku", "vaihe": "Tontti", "osoite": "Pyhän Marian tie 42", "kaytto": "Ei vahvistettu; A-2-tontilla sallittu asuminen, palveluasuminen tai päivähoito", "lupa": "Ei rakentamislupaa; tonttikilpailu voitettu, 301 021 € osto tai vuokra (Kylk 16.6.2026 § 212)", "kiinteistotunnus": "853-99-10-1", "kaavatunnus": null, "koko_proxy": null, "aikaikkuna": null, "status": "vahvistettu", "detalji": "Tarjouskilpailun voittaja WelCo Oy, 301 021 €, osto tai vuokra (Kylk 16.6.2026 § 212)", "pvm": "2026-06-16", "varmuus": "matala", "tarkkuus": "katu", "url": "https://paatokset.turku.fi/kaupunkiymparistolautakunta/5422669/5418187", "paikat": "Ei julkaistu (1 500 k-m², tontti 7 403 m²)", "valmis": "~2028–2029 (karkea arvio vaiheesta)", "nimi": "Pyhän Marian tie 42 — WelCo", "operaattori": null, "sijoittaja": null, "toimijat_lahde": null, "kehittaja": "WelCo Oy"}}, {"type": "Feature", "geometry": {"type": "Point", "coordinates": [22.290869, 60.433369]}, "properties": {"id": "turku-peltolantie-3", "kunta": "Turku", "vaihe": "Tontti", "osoite": "Peltolantie 3", "kaytto": "Palvelurakennus P-1, kaavan mukaan todennäköisimmin hoivakoti; 2 900 k-m²", "lupa": "Ei rakentamislupaa P-1:lle; kaava voimassa 17.1.2026; alueen purkamislupa Rlupalk 22.5.2025 § 81", "kiinteistotunnus": "853-32-45-4", "kaavatunnus": "10/2022", "koko_proxy": null, "aikaikkuna": null, "status": "vahvistettu", "detalji": "Petreliuksenportin katusuunnitelmat (Kylk 25.8.2026 § 240); asemakaava 10/2022 voimassa 17.1.2026", "pvm": "2026-08-25", "varmuus": "kohtalainen", "tarkkuus": "talo", "url": "https://paatokset.turku.fi/kaupunkiymparistolautakunta/5446807/5445104", "paikat": null, "valmis": "~2028–2029 (karkea arvio vaiheesta)", "nimi": "Petreliuksenportti P-1 (Luolavuori) — Jatke", "operaattori": null, "sijoittaja": null, "toimijat_lahde": null, "kehittaja": "Jatke Länsi-Suomi Oy (maanomistaja, osti Kelalta 9.1.2025)"}}, {"type": "Feature", "geometry": {"type": "Point", "coordinates": [22.329442, 60.462061]}, "properties": {"id": "turku-kuralankatu-2", "kunta": "Turku", "vaihe": "Tontti", "osoite": "Kuralankatu 2", "kaytto": "Ikäihmiset, tehostettu palveluasuminen (Kulkurin Valssin laajennus)", "lupa": "Asemakaava 13/2021 voimassa 29.3.2025 (KV 27.1.2025 § 11); ei rakentamislupaa", "kiinteistotunnus": "853-13-39-6", "kaavatunnus": "13/2021", "koko_proxy": null, "aikaikkuna": null, "status": "vahvistettu", "detalji": "Asemakaava 13/2021 (KV 27.1.2025 § 11) voimaan 29.3.2025; tiedoksi Kylk 8.4.2025 § 129", "pvm": "2025-04-08", "varmuus": "matala", "tarkkuus": "talo", "url": "https://paatokset.turku.fi/kaupunkiymparistolautakunta/5197390/5194876", "paikat": "+69 asukasta (kaavaselostus; toisaalla 160)", "valmis": "~2027–2028 (karkea arvio vaiheesta)", "nimi": "Kuralankatu 2 — TVT Asunnot", "operaattori": null, "sijoittaja": "KOy Turun Kulkurin Valssi ja KOy Vähähuhko (tontin omistajat)", "toimijat_lahde": null, "kehittaja": "TVT Asunnot Oy (KOy Turun Kulkurin Valssi, KOy Vähähuhko)"}}, {"type": "Feature", "geometry": {"type": "Point", "coordinates": [22.255141, 60.487541]}, "properties": {"id": "turku-munterinkatu-3a", "kunta": "Turku", "vaihe": "Tontti", "osoite": "Munterinkatu 3a", "kaytto": "Ikäihmiset, vanhusten palvelutalo", "lupa": "Kaava 26/2024 voimassa 11.10.2025; kaupungin tontti, luovutuspäätöstä ei löytynyt; ei rakentamislupaa", "kiinteistotunnus": "853-85-2-7", "kaavatunnus": "26/2024", "koko_proxy": null, "aikaikkuna": null, "status": "vahvistettu", "detalji": "Munterinkatu 3a (Runosmäki) asemakaavanmuutos voimaan 11.10.2025; tiedoksi Kylk 21.10.2025 § 343", "pvm": "2025-10-21", "varmuus": "kohtalainen", "tarkkuus": "talo", "url": "https://paatokset.turku.fi/kaupunkiymparistolautakunta/5292005/5289863", "paikat": "n. 56 asukasta", "valmis": "~2027–2028 (karkea arvio vaiheesta)", "nimi": "Munterinkatu 3a", "operaattori": null, "sijoittaja": null, "toimijat_lahde": null, "kehittaja": null}}, {"type": "Feature", "geometry": {"type": "Point", "coordinates": [22.243543, 60.459236]}, "properties": {"id": "turku-inkilankatu-4", "kunta": "Turku", "vaihe": "Tontti", "osoite": "Inkilänkatu 4", "kaytto": "Varhan varavaihtoehto (jos Hemsön sopimus raukeaa tai päätetään alkuvaiheessa): ikäihmiset, ympärivrk + arviointi", "lupa": "Ei rakentamis- eikä poikkeamislupaa (RYHTI ja Turun päätöshaku 15.9.2026)", "kiinteistotunnus": "853-74-89-11", "kaavatunnus": "19/2017", "koko_proxy": null, "aikaikkuna": null, "status": "vahvistettu", "detalji": "Varha AH 23.2.2026 § 57: YIT (Inkilänkatu 4) varatoimittajaksi, 87,41 p., vuokra-aika 21 v 11 kk", "pvm": "2026-02-23", "varmuus": "matala", "tarkkuus": "katu", "url": "https://varha-julkaisu.triplancloud.fi/ktwebscr/fileshow?doctype=3&docid=1328771", "paikat": "(170) vaihtoehto Virvoituksentie 5:lle, ei lisäpaikkoja", "valmis": "ehdollinen: vain jos Hemsön sopimus raukeaa tai päätetään alkuvaiheessa", "nimi": "Inkilänkatu 4 (Pukkila) — YIT", "operaattori": null, "sijoittaja": null, "toimijat_lahde": null, "kehittaja": "YIT Rakennus Oy (Varhan varatoimittaja, 87,41 p.); tontin omistaa YIT Suomi Oy"}}, {"type": "Feature", "geometry": {"type": "Point", "coordinates": [22.327483, 60.426413]}, "properties": {"id": "turku-vallikatu", "kunta": "Turku", "vaihe": "Tontti", "osoite": null, "kaytto": "Ikäihmiset (120 ympärivrk + 30 yhteisöllinen) + vammaisten asumisyksikkö (20)", "lupa": "Ei myönnettyjä lupia; Kh 10.8.2026 § 236: Skanssin Varha-yksikön poikkeamislupa vireillä (kohdistus päättely)", "kiinteistotunnus": null, "kaavatunnus": null, "koko_proxy": null, "aikaikkuna": null, "status": "vahvistettu", "detalji": "Varha AH 15.12.2025 § 392: Kerttulin korvaava ja vammaispalvelulain asumisyksikkö samaan rakennukseen, tuleva osoite Vallikatu; kilpailutus 2027", "pvm": "2025-12-15", "varmuus": "kohtalainen", "tarkkuus": "katu", "url": "https://varha-julkaisu.triplancloud.fi/ktwebscr/fileshow?doctype=3&docid=1266778", "paikat": "170 (150 ikäihmiset + 20 vammaiset)", "valmis": "Tontti ja vuokranantajan kilpailutus 2027", "nimi": "Vallikatu (Itä-Skanssi)", "operaattori": "Varha (oma tuotanto)", "sijoittaja": null, "toimijat_lahde": null, "kehittaja": "(ei valittu; Varha kilpailuttaa vuokranantajan 2027)"}}, {"type": "Feature", "geometry": {"type": "Point", "coordinates": [22.27921, 60.475982]}, "properties": {"id": "turku-makslankatu", "kunta": "Turku", "vaihe": "Tontti", "osoite": null, "kaytto": "Lastensuojelu, erityistason lastenkoti", "lupa": "Ei lupia; vuokranantajan kilpailutus (HILMA 2025-026320) päättyi 5/2026 ilman sopimusta", "kiinteistotunnus": null, "kaavatunnus": null, "koko_proxy": null, "aikaikkuna": null, "status": "vahvistettu", "detalji": "Makslankadun lastenkodin vuokrahanke: kilpailutus päättyi ilman sopimusta, ainoa tarjous hylätty (TED 358390-2026)", "pvm": "2026-05-26", "varmuus": "kohtalainen", "tarkkuus": "katu", "url": "https://ted.europa.eu/en/notice/-/detail/358390-2026", "paikat": "21 paikkaa", "valmis": "~2028–2029 (karkea arvio vaiheesta)", "nimi": "Makslankatu (Kaerla)", "operaattori": "Varha (vuokralainen, vuokra n. 20 v)", "sijoittaja": null, "toimijat_lahde": null, "kehittaja": null}}, {"type": "Feature", "geometry": {"type": "Point", "coordinates": [24.743329, 60.284093]}, "properties": {"id": "espoo-kylvotie-4", "kunta": "Espoo", "vaihe": "Lupa/rakentaminen", "osoite": "Kylvötie 4", "kaytto": null, "lupa": null, "kiinteistotunnus": "49-81-72-28", "kaavatunnus": null, "koko_proxy": "2690 k-m² (RYHTI, toteutuva)", "aikaikkuna": "Rakennuslupa myönnetty 2/2026, rakentaminen ei alkanut", "status": "auto", "detalji": "Rakentamislupa 49-2026-39, Kylvötie 4", "pvm": "2026-02-26", "varmuus": "kohtalainen", "tarkkuus": "katu", "url": "https://espoo.oncloudos.com/cgi/DREQUEST.PHP?page=meetingitem&id=20261609-15", "paikat": "54", "valmis": "~2027–2028 (karkea arvio vaiheesta)", "nimi": "Kylvötie 4 — SSA Rakennus", "operaattori": null, "sijoittaja": null, "toimijat_lahde": null, "kehittaja": "KOy Espoon Kylvötien Palvelutalo (c/o SSA Rakennus; tontti seurakuntayhtymän)"}}, {"type": "Feature", "geometry": {"type": "Point", "coordinates": [24.769006, 60.194839]}, "properties": {"id": "espoo-mankkaanmalmi-2", "kunta": "Espoo", "vaihe": "Lupa/rakentaminen", "osoite": "Mankkaanmalmi 2", "kaytto": null, "lupa": null, "kiinteistotunnus": "49-26-154-2", "kaavatunnus": null, "koko_proxy": "2705 k-m² (RYHTI, toteutuva)", "aikaikkuna": "Valmistunut 8/2026", "status": "auto", "detalji": "Uudisrakennuslupa 2024-1495, Mankkaanmalmi 2", "pvm": "2025-03-20", "varmuus": "kohtalainen", "tarkkuus": "talo", "url": "https://espoo.oncloudos.com/cgi/DREQUEST.PHP?page=meetingitem&id=20251396-9", "paikat": "57", "valmis": "syksy 2026", "nimi": "Mankkaanmalmi 2 — Yrjö ja Hanna Kodit", "operaattori": "Yrjö ja Hanna Hoiva", "sijoittaja": null, "toimijat_lahde": null, "kehittaja": "Yrjö ja Hanna Kodit (KVR-urakoitsija YIT)"}}, {"type": "Feature", "geometry": {"type": "Point", "coordinates": [24.804013, 60.188811]}, "properties": {"id": "espoo-tietajantie-2", "kunta": "Espoo", "vaihe": "Lupa/rakentaminen", "osoite": "Tietäjäntie 2", "kaytto": null, "lupa": null, "kiinteistotunnus": null, "kaavatunnus": null, "koko_proxy": null, "aikaikkuna": "Lupavaihe, viimeisin päätös 9/2026", "status": "auto", "detalji": "Poikkeamispäätös 49-2026-573, 16. kaupunginosa Pohjois-Tapiola, kortteli 16132, tontti 2, osoite: Tietäjäntie 2", "pvm": "2026-09-16", "varmuus": "kohtalainen", "tarkkuus": "talo", "url": "https://espoo.oncloudos.com/cgi/DREQUEST.PHP?page=meetingitem&id=20261712-6", "paikat": null, "valmis": "~2027–2028 (karkea arvio vaiheesta)", "nimi": "Tietäjäntie 2", "operaattori": null, "sijoittaja": null, "toimijat_lahde": null, "kehittaja": null}}, {"type": "Feature", "geometry": {"type": "Point", "coordinates": [23.62424, 61.516634]}, "properties": {"id": "tampere-laurinahonkatu-5", "kunta": "Tampere", "vaihe": "Lupa/rakentaminen", "osoite": "Laurinahonkatu 5", "kaytto": null, "lupa": null, "kiinteistotunnus": "837-225-2085-5", "kaavatunnus": null, "koko_proxy": "1090 k-m² (RYHTI, toteutuva)", "aikaikkuna": "Rakennuslupa myönnetty 4/2026, rakentaminen ei alkanut", "status": "auto", "detalji": "Poikkeamishakemus Lamminpää, Laurinahonkatu 5, kehitysvammaisten asumispalveluyksikön rakentaminen", "pvm": "2026-03-03", "varmuus": "kohtalainen", "tarkkuus": "talo", "url": "https://tampere.cloudnc.fi/fi-FI/content/492650/36057", "paikat": "24", "valmis": "tavoite 10/2026 (Pirha); naapurivalitus HaO:ssa 4/2026 → voi viivästyä", "nimi": "Laurinahonkatu 5", "operaattori": "Humana", "sijoittaja": null, "toimijat_lahde": null, "kehittaja": null}}, {"type": "Feature", "geometry": {"type": "Point", "coordinates": [23.8466, 61.456624]}, "properties": {"id": "tampere-afrikanpiha-4", "kunta": "Tampere", "vaihe": "Lupa/rakentaminen", "osoite": "Afrikanpiha 4", "kaytto": null, "lupa": null, "kiinteistotunnus": "837-65-7134-22", "kaavatunnus": null, "koko_proxy": null, "aikaikkuna": "Lupavaihe, viimeisin päätös 2/2026", "status": "auto", "detalji": "Poikkeamishakemus Hervanta, Afrikanpiha 4, asuinkerrostalon rakentaminen", "pvm": "2026-02-10", "varmuus": "kohtalainen", "tarkkuus": "katu", "url": "https://tampere.cloudnc.fi/fi-FI/content/488963/35901", "paikat": "149 (89+60)", "valmis": "11/2027 (rakentaminen alkaa 9/2026)", "nimi": "Afrikanpiha 4 — Hartela", "operaattori": "Esperi (89 pk) + Rinnekodit (60 pk)", "sijoittaja": "PPI Public Property Invest (osto ~23,3 M€, net yield 6,45 %)", "toimijat_lahde": null, "kehittaja": "Hartela (avaimet käteen)"}}, {"type": "Feature", "geometry": {"type": "Point", "coordinates": [23.882092, 61.474291]}, "properties": {"id": "tampere-jarvikatu-2", "kunta": "Tampere", "vaihe": "Lupa/rakentaminen", "osoite": "Järvikatu 2", "kaytto": null, "lupa": null, "kiinteistotunnus": null, "kaavatunnus": null, "koko_proxy": null, "aikaikkuna": "Lupavaihe, viimeisin päätös 12/2024", "status": "auto", "detalji": "Poikkeamishakemus Kaukajärvi, Järvikatu 2, senioritalon rakentaminen", "pvm": "2024-12-17", "varmuus": "kohtalainen", "tarkkuus": "talo", "url": "https://tampere.cloudnc.fi/fi-FI/content/417211/32680", "paikat": "50", "valmis": "2026–27 (arvio)", "nimi": "Järvikatu 2 — Aki Hyrkkönen", "operaattori": "Ikifit", "sijoittaja": null, "toimijat_lahde": null, "kehittaja": "Aki Hyrkkönen Oy (rakennusliike; rakennuttajakonsultti PROY)"}}, {"type": "Feature", "geometry": {"type": "Point", "coordinates": [23.689952, 61.521245]}, "properties": {"id": "tampere-837-264-7912-3", "kunta": "Tampere", "vaihe": "Lupa/rakentaminen", "osoite": "Matilda Niemen kuja 3", "kaytto": null, "lupa": null, "kiinteistotunnus": "837-264-7912-3", "kaavatunnus": null, "koko_proxy": null, "aikaikkuna": "Lupavaihe, viimeisin päätös 9/2026", "status": "auto", "detalji": "Poikkeamishakemus Niemenranta, Matilda Niemen kuja 3 , asumispalveluyksikön rakentaminen", "pvm": "2026-09-01", "varmuus": "kohtalainen", "tarkkuus": "katu", "url": "https://tampere.cloudnc.fi/fi-FI/content/516844/37052", "paikat": null, "valmis": "~2027–2028 (karkea arvio vaiheesta)", "nimi": "Matilda Niemen kuja 3", "operaattori": null, "sijoittaja": null, "toimijat_lahde": null, "kehittaja": null}}, {"type": "Feature", "geometry": {"type": "Point", "coordinates": [22.226919, 60.441829]}, "properties": {"id": "turku-ebba-brahen-katu-9", "kunta": "Turku", "vaihe": "Lupa/rakentaminen", "osoite": "Ebba Brahen katu 9", "kaytto": "Erityisryhmät + ikäihmiset, ympärivrk/tehostettu palveluasuminen", "lupa": "Rakentamislupa 2.7.2026 (Rlupalk § 134, ennalta-aloitus); poikkeamislupa P 2025-698 19.3.2026; RYHTI: ei aloitettu", "kiinteistotunnus": "853-61-30-2", "kaavatunnus": "27/2013", "koko_proxy": "4632 k-m² (RYHTI, toteutuva)", "aikaikkuna": null, "status": "vahvistettu", "detalji": "Maankäyttöjohtaja 26 §: tontin 853-61-30-2 pilaantuneen maan vastaanotto ja käsittely (tiedoksi Kylk 8.9.2026)", "pvm": "2026-09-08", "varmuus": "korkea", "tarkkuus": "talo", "url": "https://paatokset.turku.fi/kaupunkiymparistolautakunta/5454760/5449725", "paikat": "113 asuinhuonetta", "valmis": "~2027–2028 (karkea arvio vaiheesta)", "nimi": "Ebba Brahen katu 9 — Koy Ebbankulma", "operaattori": null, "sijoittaja": null, "toimijat_lahde": null, "kehittaja": "Koy Ebbankulma (3173715-2, c/o Virtanen Yhtiöt Oy), poikkeamisluvan hakija; rakentamisluvan hakija kaupunki maanomistajana"}}, {"type": "Feature", "geometry": {"type": "Point", "coordinates": [22.251082, 60.43112]}, "properties": {"id": "turku-vahaheikkila-turku", "kunta": "Turku", "vaihe": "Lupa/rakentaminen", "osoite": "Vähäheikkiläntie 54", "kaytto": "Ikäihmisten asumispalvelu (hoivakoti)", "lupa": "Poikkeamislupa 10.6.2026 (P 2026-11 § 38), voimassa 2 v; ei rakentamislupaa (RYHTI 15.9.2026)", "kiinteistotunnus": "853-41-19-15", "kaavatunnus": null, "koko_proxy": "4000 k-m² (poikkeamispäätös)", "aikaikkuna": null, "status": "vahvistettu", "detalji": "Poikkeamislupa: hoivakodin uudisrakentaminen, Vähäheikkilä (P 2026-11)", "pvm": "2026-08-11", "varmuus": "korkea", "tarkkuus": "talo", "url": "https://paatokset.turku.fi/kaupunkiymparistolautakunta/5440364/5427027", "paikat": "80–100 asukasta", "valmis": "~2027–2028 (karkea arvio vaiheesta)", "nimi": "Vähäheikkiläntie 54 — Jatke", "operaattori": null, "sijoittaja": null, "toimijat_lahde": null, "kehittaja": "Jatke Länsi-Suomi Oy (2786808-8), poikkeamisluvan hakija"}}, {"type": "Feature", "geometry": {"type": "Point", "coordinates": [22.288823, 60.434528]}, "properties": {"id": "turku-virvoituksentie-5", "kunta": "Turku", "vaihe": "Lupa/rakentaminen", "osoite": "Virvoituksentie 5", "kaytto": "Ikäihmiset, ympärivrk + kuntouttava arviointi (Kurjenmäkikodin korvaaja)", "lupa": "Rakentamislupa 13.8.2026 (Rlupalk § 151, 2026-416); aloitettu 26.8.2026", "kiinteistotunnus": "853-32-24-10", "kaavatunnus": null, "koko_proxy": "7 468 k-m² (RYHTI)", "aikaikkuna": null, "status": "vahvistettu", "detalji": "Rakentamislupahakemus / Turun seudun sosiaali- ja terveyspalvelukiinteistöt Oy, 32-24-10 (2026-416)", "pvm": "2026-08-13", "varmuus": "korkea", "tarkkuus": "talo", "url": "https://paatokset.turku.fi/rakennus-ja-lupalautakunta/5440576/5440332", "paikat": "170 (70 ympärivrk + 100 arviointi)", "valmis": "kevät 2028", "nimi": "Virvoituksentie 5 (Luolavuori) — Hemsö", "operaattori": "Varha (vuokra 21 v 6 kk)", "sijoittaja": "Hemsö (n. 22 M€)", "toimijat_lahde": null, "kehittaja": "Turun seudun sosiaali- ja terveyspalvelukiinteistöt Oy (2718451-6, Hemsö); urakka NCC"}}, {"type": "Feature", "geometry": {"type": "Point", "coordinates": [22.317254, 60.426997]}, "properties": {"id": "turku-sorakatu-3", "kunta": "Turku", "vaihe": "Lupa/rakentaminen", "osoite": "Sorakatu 3", "kaytto": "Ikäihmiset, palveluasuminen (hoivakoti)", "lupa": "Poikkeamislupa 20.3.2026 (P 2026-52, § 25); ei rakentamislupaa (RYHTI 15.9.2026)", "kiinteistotunnus": "853-37-22-8", "kaavatunnus": null, "koko_proxy": "3700 k-m² (poikkeamispäätös)", "aikaikkuna": null, "status": "vahvistettu", "detalji": "Valvontajuristi 6 §: yhteisjärjestelypäätös, kiinteistöt 853-37-22-8 ja 853-37-22-1 (tiedoksi Rlupalk 4.6.2026 § 111)", "pvm": "2026-06-04", "varmuus": "korkea", "tarkkuus": "katu", "url": "https://paatokset.turku.fi/rakennus-ja-lupalautakunta/5413056/5412514", "paikat": "82 paikkaa", "valmis": "~2027–2028 (karkea arvio vaiheesta)", "nimi": "Sorakatu 3 — Lujatalo", "operaattori": null, "sijoittaja": null, "toimijat_lahde": null, "kehittaja": "KOy Skanssinniitty 1 (3311283-4), c/o Lujatalo Oy"}}, {"type": "Feature", "geometry": {"type": "Point", "coordinates": [22.208492, 60.471418]}, "properties": {"id": "turku-lukkosepankatu-2", "kunta": "Turku", "vaihe": "Lupa/rakentaminen", "osoite": "Lukkosepänkatu 2", "kaytto": "Ikäihmiset, ympärivrk palveluasuminen + yhteisöllinen asuminen", "lupa": "Rakennuslupaa ei Turun päätöshaussa; rakennustyöt käynnistyneet syksyllä 2025 (Lapti, Rinnekodit)", "kiinteistotunnus": null, "kaavatunnus": null, "koko_proxy": null, "aikaikkuna": null, "status": "vahvistettu", "detalji": "Rinnekodit: rakennustyöt käynnissä, 58 ikääntyneen hoivakoti valmistuu loppuvuonna 2026 (tiedote, ei päätös)", "pvm": "2025-11-20", "varmuus": "korkea", "tarkkuus": "talo", "url": "https://www.rinnekodit.fi/ajankohtaista/rinnekodit-laajenee-turussa/", "paikat": "58 asuinhuonetta", "valmis": "loppuvuosi 2026", "nimi": "Lukkosepänkatu 2 — Plus Hoivakodit", "operaattori": "Rinnekodit Oy (Rinnekodit Numminiitty)", "sijoittaja": null, "toimijat_lahde": null, "kehittaja": "Plus Hoivakodit Oy (Plushoiva Partnersin ja Urban Partnersin yhteisyritys); urakoitsija Rakennusliike Lapti Oy"}}, {"type": "Feature", "geometry": {"type": "Point", "coordinates": [22.203454, 60.472808]}, "properties": {"id": "turku-tyonjohtajankatu-12", "kunta": "Turku", "vaihe": "Lupa/rakentaminen", "osoite": "Työnjohtajankatu 12", "kaytto": "Ikäihmiset, ympärivrk hoivakoti", "lupa": "Poikkeamispäätös Kylk 5.3.2024 § 70 (P 2023-1266); rakennuslupa 2.4.2025 (RYHTI); aloitettu 17.11.2025", "kiinteistotunnus": "853-77-66-5", "kaavatunnus": null, "koko_proxy": null, "aikaikkuna": null, "status": "vahvistettu", "detalji": "Poikkeamispäätös: Hoivakoti, Mälikkälä (P 2023-1266); hakija Huhtihovi Oy, 1 krs, 920 k-m²", "pvm": "2024-03-05", "varmuus": "korkea", "tarkkuus": "talo", "url": "https://paatokset.turku.fi/kaupunkiymparistolautakunta/5016868/5015001", "paikat": "25 asukaspaikkaa", "valmis": "syksy 2026", "nimi": "Työnjohtajankatu 12 — Huhtihovi", "operaattori": "Attendo", "sijoittaja": "Hoivatilat Oyj", "toimijat_lahde": null, "kehittaja": "Huhtihovi Oy (poikkeamisen hakija; Attendon yhtiö 2/2025); kehitetty Huhti Palvelukiinteistöt Oy:n ja SSA Rakennus Oy:n kanssa; kokonaisurakka SSA"}}, {"type": "Feature", "geometry": {"type": "Point", "coordinates": [22.179391, 60.449264]}, "properties": {"id": "turku-lansikaari-28", "kunta": "Turku", "vaihe": "Lupa/rakentaminen", "osoite": "Länsikaari 28", "kaytto": "Kehitysvammaiset aikuiset: ympärivrk, yhteisöllinen ja tuettu asuminen", "lupa": "Rakennuslupaa ei Turun päätöshaussa; rakennustyöt käynnistyneet alkuvuonna 2026 (Plus Hoivakodit, Rinnekodit)", "kiinteistotunnus": null, "kaavatunnus": null, "koko_proxy": null, "aikaikkuna": null, "status": "vahvistettu", "detalji": "Rinnekodit: 28 paikan vammaispalveluyksikkö rakenteilla, valmistuu vuodenvaihteessa, asukkaat alkuvuonna 2027 (tiedote, ei päätös)", "pvm": "2026-02-17", "varmuus": "korkea", "tarkkuus": "katu", "url": "https://www.sttinfo.fi/tiedote/71816775/rinnekotien-kasvu-turussa-jatkuu-uusi-vammaispalveluyksikko-valmistuu-vuoden-lopussa", "paikat": "28 asukaspaikkaa", "valmis": "vuodenvaihde 2026/27; toiminta alkaa alkuvuonna 2027", "nimi": "Länsikaari 28 — Plus Hoivakodit", "operaattori": "Rinnekodit Oy (Rinnekodit Fiini)", "sijoittaja": null, "toimijat_lahde": null, "kehittaja": "Plus Hoivakodit Oy (Plushoiva Partnersin ja Urban Partnersin yhteisyritys); KVR-urakoitsija Aura Rakennus Länsi-Suomi Oy"}}, {"type": "Feature", "geometry": {"type": "Point", "coordinates": [22.154609, 60.45178]}, "properties": {"id": "turku-metallikatu-7", "kunta": "Turku", "vaihe": "Lupa/rakentaminen", "osoite": "Metallikatu 7", "kaytto": "Ikääntyneiden tehostetun palveluasumisen yksikkö + piharakennus (poikkeamislupa P 2021-1008, A-tontti)", "lupa": "RL 302102016A 20.10.2022, aloitettu 8.12.2022, 1 198 k-m²; valmistumista ei kirjattu (RYHTI 9/2026)", "kiinteistotunnus": "853-66-64-8", "kaavatunnus": null, "koko_proxy": null, "aikaikkuna": null, "status": "vahvistettu", "detalji": "Rakennustyö aloitettu 8.12.2022 (rakennuslupa 20.10.2022, 1 198 k-m²); valmistumista ei kirjattu RYHTIin 14.9.2026 mennessä", "pvm": "2022-12-08", "varmuus": "kohtalainen", "tarkkuus": "talo", "url": "https://paikkatiedot.ymparisto.fi/geoserver/ryhti_building/ogc/features/v1/collections/avoimet_lupa_rakennukset/items?filter-lang=cql2-text&filter=sijaintikiinteisto%3D%2785306600640008%27&f=text/html", "paikat": "~30 (hakuote Turun poikkeamispäätöksestä, alkuperäissivua ei saatu auki)", "valmis": "Epävarma: arvio 11/2023 (RakennusFakta), valmistumista ei kirjattu RYHTIin; rakennuttaja ja emoyhtiö konkurssissa", "nimi": "Metallikatu 7 (Pansio) — Sikla", "operaattori": null, "sijoittaja": null, "toimijat_lahde": null, "kehittaja": "Siklatilat Oy (rakennuttaja/pääurakoitsija, konkurssi 9/2023); kohdeyhtiö KOy Turun Metallikadun Hoivakoti 3217260-8, c/o Sikla Oy (konkurssi 9/2025)"}}, {"type": "Feature", "geometry": {"type": "Point", "coordinates": [22.430305, 60.603718]}, "properties": {"id": "turku-sakylantie-357", "kunta": "Turku", "vaihe": "Lupa/rakentaminen", "osoite": "Säkyläntie 357", "kaytto": "Mielenterveyskuntoutujien asumisyksikkö (tehostettu 16 + palveluasuminen 24 paikkaa): päärakennuksen laajennus 658 → 1 020 k-m²", "lupa": "Laajennuslupa 31.10.2025: päärakennus 658 → 1 020 k-m² (2 krs, +362 k-m²); RYHTI-tila Suunniteltu", "kiinteistotunnus": "853-591-1-29", "kaavatunnus": null, "koko_proxy": null, "aikaikkuna": null, "status": "vahvistettu", "detalji": "Rakennuslupa, laajentaminen (RYHTI 31.10.2025): Palvelutalo Suojakodin päärakennus 658 → 1 020 k-m², 2 krs, tila Suunniteltu. Kiinteistö 853-591-1-29", "pvm": "2025-10-31", "varmuus": "kohtalainen", "tarkkuus": "talo", "url": "https://paikkatiedot.ymparisto.fi/geoserver/ryhti_building/ogc/features/v1/collections/avoimet_lupa_rakennukset/items?filter-lang=cql2-text&filter=sijaintikiinteisto%3D%2785359100010029%27&f=text/html", "paikat": "nyk. 40 (+ tuettu asuminen 20); laajennuksen lisäpaikat ei julkista tietoa", "valmis": "arvio 2026–2027 (työt ei alkaneet 9/2026, RYHTI)", "nimi": "Säkyläntie 357 (Paattinen) — Suojakoti", "operaattori": "Kristillinen Suojakoti-säätiö sr (Palvelutalo Suojakoti)", "sijoittaja": null, "toimijat_lahde": null, "kehittaja": "Kristillinen Suojakoti-säätiö sr (1552263-7)"}}, {"type": "Feature", "geometry": {"type": "Point", "coordinates": [22.126739, 60.507911]}, "properties": {"id": "raisio-kotimaentie-12", "kunta": "Raisio", "vaihe": "Valmis", "osoite": "Kotimäentie 12", "kaytto": "Kehitysvammaisten 18-paikkainen ryhmäkoti", "lupa": null, "kiinteistotunnus": null, "kaavatunnus": null, "koko_proxy": null, "aikaikkuna": "Valmis, viimeisin päätös 10/2024", "status": "vahvistettu", "detalji": "Kaavamuutos pientaloasumisesta ryhmäkotiin hyväksytty 10/2024, tontti vuokrattu", "pvm": "2024-10-10", "varmuus": "korkea", "tarkkuus": "katu", "url": "https://julkaisut.raisio.fi/dynasty10/cgi/DREQUEST.PHP?page=meetingitem&id=2024447-7", "paikat": "18", "valmis": "avattu 10/2025", "nimi": "Kotimäentie 12", "operaattori": "Humana (Vammaispalvelut Oy, ent. Humana Uula)", "sijoittaja": null, "toimijat_lahde": null, "kehittaja": "KOy MHR 17 (Hoivarakentajat + Humana)"}}, {"type": "Feature", "geometry": {"type": "Point", "coordinates": [22.205735, 60.489745]}, "properties": {"id": "raisio-nikkarinkatu-4-myllynhelmi", "kunta": "Raisio", "vaihe": "Valmis", "osoite": "Nikkarinkatu 4", "kaytto": "Ikääntyneiden hoivakoti (Mainiokoti Myllynhelmi)", "lupa": null, "kiinteistotunnus": "680-6-6057-2", "kaavatunnus": null, "koko_proxy": "1552 k-m² (RYHTI, toteutuva)", "aikaikkuna": "Rakenteilla (aloitettu 8/2026)", "status": "vahvistettu", "detalji": "Mainiokoti Myllynhelmi avattu (35 paikkaa)", "pvm": "2026-04-01", "varmuus": "korkea", "tarkkuus": "katu", "url": "https://mainiokodit.fi/hoivakodit/mainiokoti-myllynhelmi", "paikat": "35", "valmis": "avattu 4/2026", "nimi": "Nikkarinkatu 4 — Lujatalo", "operaattori": "Mainiokodit (Mehiläinen)", "sijoittaja": "Lumme Palvelukiinteistöt Oy", "toimijat_lahde": null, "kehittaja": "Lujatalo Oy (urakoitsija; tilaaja Lumme Palvelukiinteistöt)"}}, {"type": "Feature", "geometry": {"type": "Point", "coordinates": [22.276876, 60.490107]}, "properties": {"id": "turku-vesalankatu-17", "kunta": "Turku", "vaihe": "Valmis", "osoite": "Vesalankatu 17", "kaytto": "Ikäihmiset, ympärivrk hoivakoti", "lupa": "Poikkeamispäätös ennen lupaa (SSA 2023); rakennuslupa Rlupalk 17.8.2023 § 197; valmistunut 12.11.2024 (RYHTI)", "kiinteistotunnus": "853-84-102-3", "kaavatunnus": null, "koko_proxy": "2280 k-m² (RYHTI, toteutuva)", "aikaikkuna": null, "status": "vahvistettu", "detalji": "Kärsämäki. Osti vuokraamansa palvelurakennustontin 853-84-102-3 (Kylk §91, 18.3.2025); vuokrasop. 2023-2062", "pvm": "2025-03-18", "varmuus": "korkea", "tarkkuus": "talo", "url": "https://paatokset.turku.fi/kaupunkiymparistolautakunta/5186350/5183910", "paikat": "57 asukaspaikkaa", "valmis": "valmistunut 12.11.2024", "nimi": "Vesalankatu 17 — SSA Rakennus", "operaattori": "Attendo (Attendo Vesalankylä; valmistuessa Huhtihovi, Attendo osti 2/2025)", "sijoittaja": "Nrep", "toimijat_lahde": null, "kehittaja": "SSA Rakennus Oy (suunniteltu Huhtihovin kanssa); luvan hakija ja tontin ostaja KOy Turun Vesalankadun Hoivakoti"}}, {"type": "Feature", "geometry": {"type": "Point", "coordinates": [22.275299, 60.438163]}, "properties": {"id": "turku-luolavuorentie-2", "kunta": "Turku", "vaihe": "Valmis", "osoite": "Luolavuorentie 2", "kaytto": "Päihdepalvelut: 34 asumispalveluasuntoa (Varhan Etapin siirto uuteen taloon) + tilapäismajoitus + päiväkeskus", "lupa": "Rakennuslupa 8.5.2024 (Rlupalk § 97); valmistunut 15.10.2025 (RYHTI)", "kiinteistotunnus": "853-22-1-8", "kaavatunnus": null, "koko_proxy": null, "aikaikkuna": null, "status": "vahvistettu", "detalji": "Rakennuslupa: päihdehuollon monipalvelukeskus, tilapäismajoitus 26 sänkyp. + asumispäivystys 35 huonep. (Rlupalk 8.5.2024 § 97)", "pvm": "2024-05-08", "varmuus": "korkea", "tarkkuus": "talo", "url": "https://paatokset.turku.fi/rakennus-ja-lupalautakunta/5048308/5041026", "paikat": "34 asuntoa (+26 tilapäismajoituspaikkaa)", "valmis": "valmistunut 10/2025", "nimi": "Luolavuorentie 2 (Toivo) — Hemsö", "operaattori": "Varha (vuokra 20 v)", "sijoittaja": "Hemsö (n. 15 M€)", "toimijat_lahde": null, "kehittaja": "Hemsö (Turun seudun sosiaali- ja terveyspalvelukiinteistöt Oy); urakka Skanska"}}, {"type": "Feature", "geometry": {"type": "Point", "coordinates": [22.332052, 60.479407]}, "properties": {"id": "turku-liekakatu-7", "kunta": "Turku", "vaihe": "Valmis", "osoite": "Liekakatu 7", "kaytto": "Asunnottomat: päihteet salliva Asunto ensin -asumispalvelu (yhteisöllinen + ympärivrk)", "lupa": "Rakennuslupa 19.12.2024 (RYHTI, viranhaltija); aloitettu 3.6.2025; valmistunut 31.8.2026", "kiinteistotunnus": "853-92-43-2", "kaavatunnus": null, "koko_proxy": null, "aikaikkuna": null, "status": "vahvistettu", "detalji": "Varke myönsi Sininauhasäätiölle korkotukilainan: Liekakadun asumispalveluyksikkö, 63 erityisryhmien asuntoa (11.7.2025)", "pvm": "2025-07-11", "varmuus": "korkea", "tarkkuus": "talo", "url": "https://www.varke.fi/fi/document/korkotuki-ja-takauslainat-2025", "paikat": "63 asukasta", "valmis": "Valmistui 31.8.2026, toiminta 1.9.2026", "nimi": "Liekakatu 7 (Oriketo) — Sininauhasäätiö", "operaattori": "Sininauha Oy (Asumispalveluyksikkö Koskela); palvelut pääosin Varhalle", "sijoittaja": "Sininauhasäätiö (Varken korkotukilaina 2025)", "toimijat_lahde": null, "kehittaja": "Sininauhasäätiö sr (rakennuttaja; kohdeyhtiö KOy Turun Liekakatu 7); suunnittelu ja rakentaminen Vestera Oy"}}, {"type": "Feature", "geometry": {"type": "Point", "coordinates": [22.312579, 60.475448]}, "properties": {"id": "turku-niuskalankatu-7", "kunta": "Turku", "vaihe": "Valmis", "osoite": "Niuskalankatu 7", "kaytto": "Ikäihmiset: yhteisöllinen ja ympärivrk palveluasuminen (30 + 15 huonetta)", "lupa": null, "kiinteistotunnus": null, "kaavatunnus": null, "koko_proxy": null, "aikaikkuna": null, "status": "vahvistettu", "detalji": "Attendo Riihivainio avautuu Räntämäkeen: 30 yhteisöllisen asumisen huonetta, ympärivrk-ryhmäkoti myöhemmin kesällä (STT-tiedote)", "pvm": "2024-05-21", "varmuus": "kohtalainen", "tarkkuus": "talo", "url": "https://www.sttinfo.fi/tiedote/70228772/uusi-attendo-koti-aukeaa-rantamakeen-turkuun-tarjoaa-yhteisollista-asumista-ikaihmisille", "paikat": "45 asukashuonetta (30 yhteisöllinen/ympärivrk + 15 ympärivrk)", "valmis": "Avautui 5/2024; 3. ryhmäkoti (ympärivrk) kesällä 2024", "nimi": "Niuskalankatu 7 (Räntämäki) — Attendo", "operaattori": "Attendo Oy (Attendo Riihivainio); Varhan ostopalvelu ja palveluseteli", "sijoittaja": null, "toimijat_lahde": null, "kehittaja": "Attendo Oy (operaattori); kiinteistön rakennuttaja ja omistaja tuntemattomia"}}, {"type": "Feature", "geometry": {"type": "Point", "coordinates": [22.29488, 60.541012]}, "properties": {"id": "turku-hippenpiha-2", "kunta": "Turku", "vaihe": "Valmis", "osoite": "Hippenpiha 2", "kaytto": "Kehitysvammaiset lapset ja nuoret: lyhytaikainen huolenpito 13 + pitkäaikainen asuminen 6", "lupa": null, "kiinteistotunnus": null, "kaavatunnus": null, "koko_proxy": null, "aikaikkuna": null, "status": "vahvistettu", "detalji": "Tukena: Hippenhelmen toiminta osaksi Tukena Oy:tä 1.1.2025, 19 asiakaspaikkaa alle 18-vuotiaille; kiinteistön omistaa Tukena-säätiö (tiedote)", "pvm": "2025-01-03", "varmuus": "kohtalainen", "tarkkuus": "talo", "url": "https://tukena.fi/tukena-oyn-palvelut-kasvoivat-kolmella-uudella-palveluyksikolla-vuoden-vaihteessa/", "paikat": "19 (13 lyhytaikaista + 6 pitkäaikaista)", "valmis": "Toiminta alkoi 1.1.2025 (rakennus 2022; aiempi toimija lopetti keväällä 2024)", "nimi": "Hippenpiha 2 (Moisio) — Tukena", "operaattori": "Tukena Oy (Tukena Hippenhelmi); suunniteltu yhteistyössä Varhan kanssa", "sijoittaja": "Tukena-säätiö (kiinteistön omistaja)", "toimijat_lahde": null, "kehittaja": "Tukena-säätiö (osti valmiin palvelukiinteistön eQ Yhteiskuntakiinteistöiltä 6/2024, pienet muutostyöt; rakennus 2022)"}}], "ilman_sijaintia": [{"kunta": "Turku", "nimi": "Ruusukujan asumisyksikön korvaava (vammaispalvelut)", "operaattori": "Varha", "paikat": null, "huom": "korvataan 2029 jälkeen (Varhan palveluverkkovisio, luonnos)", "url": "https://paatokset.turku.fi/kaupunginhallitus/5440389/5439990"}, {"kunta": "Turku", "nimi": "Toinen uusi vammaispalvelujen asumisyksikkö", "operaattori": "Varha", "paikat": null, "huom": "visiokausi 2027–2037 (Varhan palveluverkkovisio, luonnos)", "url": "https://paatokset.turku.fi/kaupunginhallitus/5440389/5439990"}, {"kunta": "Turku", "nimi": "Kaksi ikääntyneiden yhteisöllisen asumisen yksikköä", "operaattori": "Varha tai yksityinen", "paikat": "uudet yksiköt ≥ 40 asukasta", "huom": "vuoteen 2037 (Varhan palveluverkkovisio, luonnos)", "url": "https://paatokset.turku.fi/kaupunginhallitus/5440389/5439990"}, {"kunta": "Turku", "nimi": "Työikäisten asumispalveluyksiköt (1 vuoteen 2029, toinen myöhemmin)", "operaattori": "Varha", "paikat": null, "huom": "1. vuoteen 2029 (Varhan palveluverkkovisio, luonnos)", "url": "https://paatokset.turku.fi/kaupunginhallitus/5440389/5439990"}, {"kunta": "Turku", "nimi": "Mielenterveys- ja päihdepalvelujen asumisyksikkö", "operaattori": "Varha", "paikat": null, "huom": "vuoteen 2037 (Varhan palveluverkkovisio, luonnos)", "url": "https://paatokset.turku.fi/kaupunginhallitus/5440389/5439990"}, {"kunta": "Turku", "nimi": "Uusi erityislastenkoti", "operaattori": "Varha", "paikat": null, "huom": "2030-luku (Varhan palveluverkkovisio, luonnos)", "url": "https://paatokset.turku.fi/kaupunginhallitus/5440389/5439990"}, {"kunta": "Turku", "nimi": "Liinahaan ja Yli-Maarian korvaava uudiskohde (ikääntyneet)", "operaattori": "Varha", "paikat": "korvaa 118 nykyistä paikkaa", "huom": "2030-luku; suunnitelma AH:ssa tavoite 28.9.2026 (Varhan palveluverkkovisio, luonnos)", "url": "https://varha-julkaisu.triplancloud.fi/ktwebscr/fileshow?doctype=3&docid=1495599"}]}